[{"OBJECT_NAME":"STARLINK-32324","OBJECT_ID":"2024-202U","EPOCH":"2026-03-09T11:36:41.724000","MEAN_MOTION":15.27558638,"ECCENTRICITY":7.784e-5,"INCLINATION":43.0028,"RA_OF_ASC_NODE":239.3682,"ARG_OF_PERICENTER":238.0815,"MEAN_ANOMALY":121.9961,"EPHEMERIS_TYPE":0,"CLASSIFICATION_TYPE":"U","NORAD_CAT_ID":61863,"ELEMENT_SET_NO":999,"REV_AT_EPOCH":7529,"BSTAR":0.00023589662,"MEAN_MOTION_DOT":6.231e-5,"MEAN_MOTION_DDOT":0},{"OBJECT_NAME":"KUIPER-00274","OBJECT_ID":"2026-030AE","EPOCH":"2026-03-09T22:00:01.999584","MEAN_MOTION":15.29896925,"ECCENTRICITY":0.00182929,"INCLINATION":51.8831,"RA_OF_ASC_NODE":218.6923,"ARG_OF_PERICENTER":71.2033,"MEAN_ANOMALY":115.2248,"EPHEMERIS_TYPE":0,"CLASSIFICATION_TYPE":"U","NORAD_CAT_ID":67792,"ELEMENT_SET_NO":999,"REV_AT_EPOCH":410,"BSTAR":0.0017989756,"MEAN_MOTION_DOT":0.00053102,"MEAN_MOTION_DDOT":0}]
